CCSDS_OMM_VERS = 2.0
CREATION_DATE  = 
ORIGINATOR     = 

OBJECT_NAME    = SL-16 R/B
OBJECT_ID      = 1993-016B
CENTER_NAME    = EARTH
REF_FRAME      = TEME
TIME_SYSTEM    = UTC
MEAN_ELEMENT_THEORY = SGP/SGP4

EPOCH          = 2026-01-21T05:08:15.565056
MEAN_MOTION    = 14.15294883
ECCENTRICITY   = .0009055
INCLINATION    = 71.0087
RA_OF_ASC_NODE = 314.8963
ARG_OF_PERICENTER = 24.3308
MEAN_ANOMALY   = 335.8241

EPHEMERIS_TYPE = 0
CLASSIFICATION_TYPE = U
NORAD_CAT_ID   = 22566
ELEMENT_SET_NO = 999
REV_AT_EPOCH   = 69545
BSTAR          = .16184E-3
MEAN_MOTION_DOT = .268E-5
MEAN_MOTION_DDOT = 0

CCSDS_OMM_VERS = 2.0
CREATION_DATE  = 
ORIGINATOR     = 

OBJECT_NAME    = COSMOS 2242
OBJECT_ID      = 1993-024A
CENTER_NAME    = EARTH
REF_FRAME      = TEME
TIME_SYSTEM    = UTC
MEAN_ELEMENT_THEORY = SGP/SGP4

EPOCH          = 2026-01-21T07:03:41.357088
MEAN_MOTION    = 14.96313335
ECCENTRICITY   = .0018013
INCLINATION    = 82.5218
RA_OF_ASC_NODE = 312.0377
ARG_OF_PERICENTER = 102.7434
MEAN_ANOMALY   = 257.5802

EPHEMERIS_TYPE = 0
CLASSIFICATION_TYPE = U
NORAD_CAT_ID   = 22626
ELEMENT_SET_NO = 999
REV_AT_EPOCH   = 77330
BSTAR          = .46195E-3
MEAN_MOTION_DOT = .5264E-4
MEAN_MOTION_DDOT = 0

CCSDS_OMM_VERS = 2.0
CREATION_DATE  = 
ORIGINATOR     = 

OBJECT_NAME    = SL-16 R/B
OBJECT_ID      = 1993-059B
CENTER_NAME    = EARTH
REF_FRAME      = TEME
TIME_SYSTEM    = UTC
MEAN_ELEMENT_THEORY = SGP/SGP4

EPOCH          = 2026-01-21T12:57:59.110272
MEAN_MOTION    = 14.17223788
ECCENTRICITY   = .0019557
INCLINATION    = 70.9908
RA_OF_ASC_NODE = 110.5591
ARG_OF_PERICENTER = 280.6464
MEAN_ANOMALY   = 79.2457

EPHEMERIS_TYPE = 0
CLASSIFICATION_TYPE = U
NORAD_CAT_ID   = 22803
ELEMENT_SET_NO = 999
REV_AT_EPOCH   = 67285
BSTAR          = .43079E-4
MEAN_MOTION_DOT = .39E-6
MEAN_MOTION_DDOT = 0

CCSDS_OMM_VERS = 2.0
CREATION_DATE  = 
ORIGINATOR     = 

OBJECT_NAME    = ARIANE 40 R/B
OBJECT_ID      = 1993-061H
CENTER_NAME    = EARTH
REF_FRAME      = TEME
TIME_SYSTEM    = UTC
MEAN_ELEMENT_THEORY = SGP/SGP4

EPOCH          = 2026-01-21T05:07:19.964928
MEAN_MOTION    = 14.32830996
ECCENTRICITY   = .0011677
INCLINATION    = 98.5014
RA_OF_ASC_NODE = 91.0144
ARG_OF_PERICENTER = 67.9300
MEAN_ANOMALY   = 292.3123

EPHEMERIS_TYPE = 0
CLASSIFICATION_TYPE = U
NORAD_CAT_ID   = 22830
ELEMENT_SET_NO = 999
REV_AT_EPOCH   = 68730
BSTAR          = .20179E-3
MEAN_MOTION_DOT = .508E-5
MEAN_MOTION_DDOT = 0

CCSDS_OMM_VERS = 2.0
CREATION_DATE  = 
ORIGINATOR     = 

OBJECT_NAME    = COSMOS 2278
OBJECT_ID      = 1994-023A
CENTER_NAME    = EARTH
REF_FRAME      = TEME
TIME_SYSTEM    = UTC
MEAN_ELEMENT_THEORY = SGP/SGP4

EPOCH          = 2026-01-21T10:11:34.399680
MEAN_MOTION    = 14.14366432
ECCENTRICITY   = .0006406
INCLINATION    = 71.0541
RA_OF_ASC_NODE = 273.9847
ARG_OF_PERICENTER = 104.1608
MEAN_ANOMALY   = 256.0226

EPHEMERIS_TYPE = 0
CLASSIFICATION_TYPE = U
NORAD_CAT_ID   = 23087
ELEMENT_SET_NO = 999
REV_AT_EPOCH   = 63812
BSTAR          = .55353E-4
MEAN_MOTION_DOT = .59E-6
MEAN_MOTION_DDOT = 0

CCSDS_OMM_VERS = 2.0
CREATION_DATE  = 
ORIGINATOR     = 

OBJECT_NAME    = SL-16 R/B
OBJECT_ID      = 1994-023B
CENTER_NAME    = EARTH
REF_FRAME      = TEME
TIME_SYSTEM    = UTC
MEAN_ELEMENT_THEORY = SGP/SGP4

EPOCH          = 2026-01-21T11:49:22.276416
MEAN_MOTION    = 14.15007019
ECCENTRICITY   = .0003868
INCLINATION    = 70.9998
RA_OF_ASC_NODE = 170.0038
ARG_OF_PERICENTER = 330.1775
MEAN_ANOMALY   = 29.9127

EPHEMERIS_TYPE = 0
CLASSIFICATION_TYPE = U
NORAD_CAT_ID   = 23088
ELEMENT_SET_NO = 999
REV_AT_EPOCH   = 63941
BSTAR          = .22032E-4
MEAN_MOTION_DOT = -.5E-7
MEAN_MOTION_DDOT = 0

CCSDS_OMM_VERS = 2.0
CREATION_DATE  = 
ORIGINATOR     = 

OBJECT_NAME    = SL-16 R/B
OBJECT_ID      = 1994-074B
CENTER_NAME    = EARTH
REF_FRAME      = TEME
TIME_SYSTEM    = UTC
MEAN_ELEMENT_THEORY = SGP/SGP4

EPOCH          = 2026-01-21T12:47:24.190368
MEAN_MOTION    = 14.79343526
ECCENTRICITY   = .0007128
INCLINATION    = 97.7166
RA_OF_ASC_NODE = 54.2489
ARG_OF_PERICENTER = 26.6536
MEAN_ANOMALY   = 130.2812

EPHEMERIS_TYPE = 0
CLASSIFICATION_TYPE = U
NORAD_CAT_ID   = 23343
ELEMENT_SET_NO = 999
REV_AT_EPOCH   = 68027
BSTAR          = .12733E-3
MEAN_MOTION_DOT = .899E-5
MEAN_MOTION_DDOT = 0

CCSDS_OMM_VERS = 2.0
CREATION_DATE  = 
ORIGINATOR     = 

OBJECT_NAME    = SL-16 R/B
OBJECT_ID      = 1994-077B
CENTER_NAME    = EARTH
REF_FRAME      = TEME
TIME_SYSTEM    = UTC
MEAN_ELEMENT_THEORY = SGP/SGP4

EPOCH          = 2026-01-21T11:49:26.089248
MEAN_MOTION    = 14.15558314
ECCENTRICITY   = .0004842
INCLINATION    = 70.9832
RA_OF_ASC_NODE = 91.7853
ARG_OF_PERICENTER = 253.7974
MEAN_ANOMALY   = 106.2616

EPHEMERIS_TYPE = 0
CLASSIFICATION_TYPE = U
NORAD_CAT_ID   = 23405
ELEMENT_SET_NO = 999
REV_AT_EPOCH   = 60955
BSTAR          = .61996E-4
MEAN_MOTION_DOT = .73E-6
MEAN_MOTION_DDOT = 0

CCSDS_OMM_VERS = 2.0
CREATION_DATE  = 
ORIGINATOR     = 

OBJECT_NAME    = ARIANE 40+ R/B
OBJECT_ID      = 1995-021B
CENTER_NAME    = EARTH
REF_FRAME      = TEME
TIME_SYSTEM    = UTC
MEAN_ELEMENT_THEORY = SGP/SGP4

EPOCH          = 2026-01-21T11:31:11.724384
MEAN_MOTION    = 14.39731626
ECCENTRICITY   = .0005658
INCLINATION    = 98.4592
RA_OF_ASC_NODE = 93.5795
ARG_OF_PERICENTER = 285.1318
MEAN_ANOMALY   = 85.7093

EPHEMERIS_TYPE = 0
CLASSIFICATION_TYPE = U
NORAD_CAT_ID   = 23561
ELEMENT_SET_NO = 999
REV_AT_EPOCH   = 61245
BSTAR          = .21898E-3
MEAN_MOTION_DOT = .642E-5
MEAN_MOTION_DDOT = 0

CCSDS_OMM_VERS = 2.0
CREATION_DATE  = 
ORIGINATOR     = 

OBJECT_NAME    = SL-16 R/B
OBJECT_ID      = 1995-058B
CENTER_NAME    = EARTH
REF_FRAME      = TEME
TIME_SYSTEM    = UTC
MEAN_ELEMENT_THEORY = SGP/SGP4

EPOCH          = 2026-01-20T22:22:01.492608
MEAN_MOTION    = 14.15489526
ECCENTRICITY   = .00133581
INCLINATION    = 71.0217
RA_OF_ASC_NODE = 280.5223
ARG_OF_PERICENTER = 202.8662
MEAN_ANOMALY   = 157.1867

EPHEMERIS_TYPE = 0
CLASSIFICATION_TYPE = U
NORAD_CAT_ID   = 23705
ELEMENT_SET_NO = 999
REV_AT_EPOCH   = 56109
BSTAR          = -.56341496E-4
MEAN_MOTION_DOT = -.158E-5
MEAN_MOTION_DDOT = 0

CCSDS_OMM_VERS = 2.0
CREATION_DATE  = 
ORIGINATOR     = 

OBJECT_NAME    = SL-16 R/B
OBJECT_ID      = 1996-051B
CENTER_NAME    = EARTH
REF_FRAME      = TEME
TIME_SYSTEM    = UTC
MEAN_ELEMENT_THEORY = SGP/SGP4

EPOCH          = 2026-01-21T10:22:27.181920
MEAN_MOTION    = 14.12402275
ECCENTRICITY   = .0018661
INCLINATION    = 70.7585
RA_OF_ASC_NODE = 275.2682
ARG_OF_PERICENTER = 212.2372
MEAN_ANOMALY   = 147.7608

EPHEMERIS_TYPE = 0
CLASSIFICATION_TYPE = U
NORAD_CAT_ID   = 24298
ELEMENT_SET_NO = 999
REV_AT_EPOCH   = 51497
BSTAR          = .76204E-4
MEAN_MOTION_DOT = .91E-6
MEAN_MOTION_DDOT = 0

CCSDS_OMM_VERS = 2.0
CREATION_DATE  = 
ORIGINATOR     = 

OBJECT_NAME    = ORBVIEW 2 (SEASTAR)
OBJECT_ID      = 1997-037A
CENTER_NAME    = EARTH
REF_FRAME      = TEME
TIME_SYSTEM    = UTC
MEAN_ELEMENT_THEORY = SGP/SGP4

EPOCH          = 2026-01-21T10:30:47.860416
MEAN_MOTION    = 14.35452067
ECCENTRICITY   = .0002154
INCLINATION    = 98.8489
RA_OF_ASC_NODE = 184.5195
ARG_OF_PERICENTER = 174.3379
MEAN_ANOMALY   = 185.7830

EPHEMERIS_TYPE = 0
CLASSIFICATION_TYPE = U
NORAD_CAT_ID   = 24883
ELEMENT_SET_NO = 999
REV_AT_EPOCH   = 50169
BSTAR          = .21978E-3
MEAN_MOTION_DOT = .585E-5
MEAN_MOTION_DDOT = 0

