SL-16 R/B               
1 22566U 93016B   26021.21406904  .00000268  00000+0  16184-3 0  9995
2 22566  71.0087 314.8963 0009055  24.3308 335.8241 14.15294883695459
COSMOS 2242             
1 22626U 93024A   26021.29422867  .00005264  00000+0  46195-3 0  9991
2 22626  82.5218 312.0377 0018013 102.7434 257.5802 14.96313335773300
SL-16 R/B               
1 22803U 93059B   26021.54026748  .00000039  00000+0  43079-4 0  9996
2 22803  70.9908 110.5591 0019557 280.6464  79.2457 14.17223788672854
ARIANE 40 R/B           
1 22830U 93061H   26021.21342552  .00000508  00000+0  20179-3 0  9993
2 22830  98.5014  91.0144 0011677  67.9300 292.3123 14.32830996687301
COSMOS 2278             
1 23087U 94023A   26021.42470370  .00000059  00000+0  55353-4 0  9994
2 23087  71.0541 273.9847 0006406 104.1608 256.0226 14.14366432638123
SL-16 R/B               
1 23088U 94023B   26021.49261894 -.00000005  00000+0  22032-4 0  9991
2 23088  70.9998 170.0038 0003868 330.1775  29.9127 14.15007019639416
SL-16 R/B               
1 23343U 94074B   26021.53291887  .00000899  00000+0  12733-3 0  9997
2 23343  97.7166  54.2489 0007128  26.6536 130.2812 14.79343526680275
SL-16 R/B               
1 23405U 94077B   26021.49266307  .00000073  00000+0  61996-4 0  9993
2 23405  70.9832  91.7853 0004842 253.7974 106.2616 14.15558314609557
ARIANE 40+ R/B          
1 23561U 95021B   26021.47999681  .00000642  00000+0  21898-3 0  9990
2 23561  98.4592  93.5795 0005658 285.1318  85.7093 14.39731626612458
SL-16 R/B               
1 23705U 95058B   26020.93196172 -.00000158  00000+0 -56341-4 0  9990
2 23705  71.0217 280.5223 0013358 202.8662 157.1867 14.15489526561096
SL-16 R/B               
1 24298U 96051B   26021.43225905  .00000091  00000+0  76204-4 0  9999
2 24298  70.7585 275.2682 0018661 212.2372 147.7608 14.12402275514979
ORBVIEW 2 (SEASTAR)     
1 24883U 97037A   26021.43805394  .00000585  00000+0  21978-3 0  9995
2 24883  98.8489 184.5195 0002154 174.3379 185.7830 14.35452067501692
